{"fetched_at":"2026-06-14T03:48:42Z","count":16735,"tles":[{"name":"CARTOSAT-2D","line1":"1 41948U 17008A   26164.60187478  .00004197  00000+0  20198-3 0  9995","line2":"2 41948  97.4117 223.9745 0003617 244.4128 115.6733 15.19309573517036","category":"Other"},{"name":"SENTINEL-2B","line1":"1 42063U 17013A   26164.64105530  .00000247  00000+0  11092-3 0  9998","line2":"2 42063  98.5695 239.4655 0001184  86.3113 273.8205 14.30816582484134","category":"Other"},{"name":"FORMOSAT-5","line1":"1 42920U 17049A   26164.53577142  .00000148  00000+0  48459-4 0  9997","line2":"2 42920  98.2253 239.9265 0012702  94.4279 265.8367 14.50897632466144","category":"Other"},{"name":"CARTOSAT-2F","line1":"1 43111U 18004A   26164.65169587  .00004401  00000+0  21242-3 0  9991","line2":"2 43111  97.4795 224.3209 0000424 260.5901  99.5286 15.19188974466792","category":"Other"},{"name":"RESOURCESAT-2A","line1":"1 41877U 16074A   26164.62207252  .00000393  00000+0  19940-3 0  9990","line2":"2 41877  98.7530 238.1555 0003355  89.9911 270.1651 14.21616005493793","category":"Other"},{"name":"SKYSAT-C9","line1":"1 42989U 17068C   26164.34416109  .00013143  00000+0  31529-3 0  9995","line2":"2 42989  97.4416 302.0521 0009229 145.1117 215.0736 15.41472181482169","category":"Other"},{"name":"GAOFEN-1 04","line1":"1 43262U 18031D   26164.66050944  .00000847  00000+0  12914-3 0  9991","line2":"2 43262  98.0534 227.2464 0002248  84.6376 275.5090 14.76474748442162","category":"Other"},{"name":"SKYSAT-C1","line1":"1 41601U 16040C   26164.63391472  .00009499  00000+0  27089-3 0  9996","line2":"2 41601  96.9566 196.5462 0003776  65.3065 294.8573 15.36245582557327","category":"Other"},{"name":"SENTINEL-5P","line1":"1 42969U 17064A   26164.46612216  .00000029  00000+0  34647-4 0  9993","line2":"2 42969  98.7926 106.6238 0000977  83.7397 276.3890 14.19518406449033","category":"Other"},{"name":"SKYSAT-C7","line1":"1 42991U 17068E   26164.61109917  .00010948  00000+0  30580-3 0  9990","line2":"2 42991  97.4524 302.1988 0007180 116.7868 243.4111 15.36860793481829","category":"Other"},{"name":"SKYSAT-C3","line1":"1 41774U 16058E   26164.59826911  .00021988  00000+0  36138-3 0  9994","line2":"2 41774  96.9005 195.5834 0001652  88.5847 271.5596 15.52394867545552","category":"Other"},{"name":"SCATSAT 1","line1":"1 41790U 16059H   26164.62885219  .00001020  00000+0  14082-3 0  9992","line2":"2 41790  98.1191 228.3582 0053276 259.2713 100.2498 14.79518813101063","category":"Other"},{"name":"SKYSAT-C10","line1":"1 42988U 17068B   26164.38003857  .00009269  00000+0  27905-3 0  9997","line2":"2 42988  97.4495 301.1902 0001156  94.0363 266.1012 15.34578521481771","category":"Other"},{"name":"GAOFEN-1 03","line1":"1 43260U 18031B   26164.61705105  .00000681  00000+0  10528-3 0  9995","line2":"2 43260  98.0524 227.0128 0003807  86.1367 274.0278 14.76464557442162","category":"Other"},{"name":"SKYSAT-C4","line1":"1 41771U 16058B   26164.51956327  .00016454  00000+0  31105-3 0  9999","line2":"2 41771  96.9169 186.4454 0001109 125.9066 234.2289 15.48479013544908","category":"Other"},{"name":"SKYSAT-C5","line1":"1 41772U 16058C   26164.58244870  .00008051  00000+0  24370-3 0  9990","line2":"2 41772  97.0474 205.3834 0001415 341.4213  18.6979 15.34422797543194","category":"Other"},{"name":"GAOFEN-1 02","line1":"1 43259U 18031A   26164.63887322  .00000827  00000+0  12633-3 0  9998","line2":"2 43259  98.0533 227.1759 0004074  42.3348 317.8175 14.76452467442171","category":"Other"},{"name":"SKYSAT-C6","line1":"1 42992U 17068F   26164.62469965  .00009538  00000+0  29086-3 0  9996","line2":"2 42992  97.4560 302.1954 0004256 146.8195 213.3315 15.34153786481772","category":"Other"}]}