OBJECT_NAME,OBJECT_ID,EPOCH,MEAN_MOTION,ECCENTRICITY,INCLINATION,RA_OF_ASC_NODE,ARG_OF_PERICENTER,MEAN_ANOMALY,EPHEMERIS_TYPE,CLASSIFICATION_TYPE,NORAD_CAT_ID,ELEMENT_SET_NO,REV_AT_EPOCH,BSTAR,MEAN_MOTION_DOT,MEAN_MOTION_DDOT
SKYSAT-C1,2016-040C,2026-06-13T15:12:50.231808,15.36245582,.00037769,96.9566,196.5462,65.3065,294.8573,0,U,41601,999,55732,.27089191E-3,.9499E-4,0
SKYSAT-C4,2016-058B,2026-06-13T12:28:10.266528,15.48479013,.0001109,96.9169,186.4454,125.9066,234.2289,0,U,41771,999,54490,.31104583E-3,.16454E-3,0
SKYSAT-C5,2016-058C,2026-06-13T13:58:43.567680,15.34422797,.00014156,97.0474,205.3834,341.4213,18.6979,0,U,41772,999,54319,.24370218E-3,.8051E-4,0
SKYSAT-C3,2016-058E,2026-06-13T14:21:30.451104,15.52394867,.00016525,96.9005,195.5834,88.5847,271.5596,0,U,41774,999,54555,.36138207E-3,.21988E-3,0
SCATSAT 1,2016-059H,2026-06-13T15:05:32.829216,14.79518813,.00532761,98.1191,228.3582,259.2713,100.2498,0,U,41790,999,10106,.14081914E-3,.102E-4,0
RESOURCESAT-2A,2016-074A,2026-06-13T14:55:47.065728,14.21616005,.00033554,98.7530,238.1555,89.9911,270.1651,0,U,41877,999,49379,.19939808E-3,.393E-5,0
CARTOSAT-2D,2017-008A,2026-06-13T14:26:41.980992,15.19309573,.00036173,97.4117,223.9745,244.4128,115.6733,0,U,41948,999,51703,.20197853E-3,.4197E-4,0
SENTINEL-2B,2017-013A,2026-06-13T15:23:07.177920,14.30816582,.00011845,98.5695,239.4655,86.3113,273.8205,0,U,42063,999,48413,.11092106E-3,.247E-5,0
FORMOSAT-5,2017-049A,2026-06-13T12:51:30.650688,14.50897632,.00127021,98.2253,239.9265,94.4279,265.8367,0,U,42920,999,46614,.48459336E-4,.148E-5,0
SENTINEL-5P,2017-064A,2026-06-13T11:11:12.954624,14.19518406,.00009779,98.7926,106.6238,83.7397,276.3890,0,U,42969,999,44903,.34646515E-4,.29E-6,0
SKYSAT-C10,2017-068B,2026-06-13T09:07:15.332448,15.34578521,.00011567,97.4495,301.1902,94.0363,266.1012,0,U,42988,999,48177,.27904922E-3,.9269E-4,0
SKYSAT-C9,2017-068C,2026-06-13T08:15:35.518176,15.41472181,.00092294,97.4416,302.0521,145.1117,215.0736,0,U,42989,999,48216,.31528675E-3,.13143E-3,0
SKYSAT-C7,2017-068E,2026-06-13T14:39:58.968288,15.36860793,.000718,97.4524,302.1988,116.7868,243.4111,0,U,42991,999,48182,.30580175E-3,.10948E-3,0
SKYSAT-C6,2017-068F,2026-06-13T14:59:34.049760,15.34153786,.00042569,97.4560,302.1954,146.8195,213.3315,0,U,42992,999,48177,.29085821E-3,.9538E-4,0
CARTOSAT-2F,2018-004A,2026-06-13T15:38:26.523168,15.19188974,.00004245,97.4795,224.3209,260.5901,99.5286,0,U,43111,999,46679,.21241752E-3,.4401E-4,0
GAOFEN-1 02,2018-031A,2026-06-13T15:19:58.646208,14.76452467,.0004074,98.0533,227.1759,42.3348,317.8175,0,U,43259,999,44217,.12632793E-3,.827E-5,0
GAOFEN-1 03,2018-031B,2026-06-13T14:48:33.210720,14.76464557,.00038075,98.0524,227.0128,86.1367,274.0278,0,U,43260,999,44216,.1052822E-3,.681E-5,0
GAOFEN-1 04,2018-031D,2026-06-13T15:51:08.015616,14.76474748,.00022482,98.0534,227.2464,84.6376,275.5090,0,U,43262,999,44216,.1291377E-3,.847E-5,0
